Name,Physical Address,Postal Address,Region,URI,Email,Telephone Number,Fax Number,Sector,Is FAFT School,Is Pre School,Is Primary School,Is Middle School,Is Senior School,Principal,NTG Remote Definition
Acacia Hill School,"80 Spearwood Rd, Alice Springs, 0870, NT","PO Box 435, ALICE SPRINGS, 0871, NT",Central,not available,acaciahill.school@education.nt.gov.au,(08) 895 52222,,Government,No,Yes,Yes,Yes,Yes,Julie Permezel,Urban
Adelaide River School,"31 Memorial Tce, Adelaide River, 0846, NT","C/- Post Office, Adelaide River, 0846, NT",Top End,,adelaideriver.ps@education.nt.gov.au,(08) 8976 7034,(08) 8976 7074,Government,No,Yes,Yes,No,No,Tony Clegg,Remote Special Category
Alawa Pre School,"27 Pett St, Alawa, NT",", , , ",Darwin,,,(08) 899 77666,,,No,Yes,No,No,No,,
Alawa Primary School,"27 Pett Street, Alawa, 0810, NT","PO Box 40446, Casuarina, 0811, NT",Darwin,http://www.alawaprimary.nt.edu.au,alawa.school@education.nt.gov.au,(08) 899 77666,,Government,No,Yes,Yes,No,No,Sandy Cartwright,Urban
Alcoota School,"N/A, Engawala (Alcoota Stn), NT","PMB 129, via Alice Springs, 0872, NT",Central,n/a,janet.purje@education.nt.gov.au,(08) 8956 9977,(08) 8956 9126,Government,No,Yes,Yes,Yes,Yes,Janet Purje,Remote Category 2
Alekarenge School,"N/A, Ali Curung (Warrabri), NT","LMB 161, via Alice Springs, 0872, NT",Barkly,not available,admin.alekacec@education.nt.gov.au,(08) 8964 1957,(08) 8964 1969,Government,Yes,Yes,Yes,Yes,Yes,Chris Harvey,Remote Category 2
Alice Springs Language Centre,"Milner Road, Alice SPrings, 0870, NT","PO Box 9045, Alice Springs, 0871, NT",Central,http://www.alicespringslanguagecentre.com,admin.aslc@education.nt.gov.au,(08) 895 52366,,Government,No,No,No,No,No,Susan Moore,Urban
Alice Springs School Of The Air,"80 Head St, Alice Springs, 0870, NT","PO Box 1220, Alice Springs, 0871, NT",Central,http://www.assoa.nt.edu.au/,assoa@assoa.nt.edu.au,(08) 8951 6800,,Government,No,Yes,Yes,Yes,No,Kerrie Russell,Remote Category 3
Alice Springs Steiner School,"Lot 9523 Ragonesi Rd, Alice Springs, 0870, NT","PO Box 2736, Alice Springs, 0871, NT",Central,http://www.alicesteiner.nt.edu.au/,accounts@alicesteiner.nt.edu.au,(08) 8952 3897,(08) 8952 3897,Independent,No,Yes,Yes,No,No,Dina Fieck,
Alpurrurulam School,"N/A, Alpurrurulam (Lake Nash), NT","PMB 46, Mt Isa, 4825, QLD",Barkly,n/a,gavin.khan@education.nt.gov.au,(07) 4748 4887,(07) 4748 3078,Government,Yes,Yes,Yes,Yes,Yes,Gavin Khan,Remote Category 3
Alyangula Area School,"Cnr Flinders St & Ayawarra Cr, Alyangula, NT","PMB 3, Alyangula, Groote Eylandt, 0885, NT",East Arnhem,http://www.alyangula.nt.edu.au,alyangula.admin@education.nt.gov.au,(08) 8987 6366,(08) 8987 6014,Government,No,Yes,Yes,Yes,Yes,Mel Dougherty,Remote Category 3
Alyangula Pre School,"Cnr Flinders St & Ayawarra Cr, Alyangula, NT",", , , ",East Arnhem,,,(08) 8987 6366,(08) 8987 6014,,No,Yes,No,No,No,,
Alyarrmandumanja Umbakumba School,"N/A, Umbakumba, NT","PO Box 698, Alyangula, 0885, NT",East Arnhem,https://www.alyarrmandumanja.nt.edu.au/,admin.umbakumba@education.nt.gov.au,(08) 8987 6793,(08) 8987 6984,Government,Yes,Yes,Yes,Yes,Yes,Genevieve Wild,Remote Category 3
Amanbidji School,"N/A, Amanbidgi (Kildirk), NT","PMB 16, via Katherine, 0851, NT",Big Rivers,n/a,carolyn.tucker@education.nt.gov.au,(08) 9168 7380,(08) 9168 7359,Government,No,Yes,Yes,Yes,No,Carolyn Tucker,Remote Category 3
Amoonguna School,"N/A, Amoonguna, NT","PO Box  2529,, Alice Springs, 0871, NT",Central,n/a,cherie.gibbens@education.nt.gov.au,(08) 8952 3402,(08) 8952 3402,Government,No,No,Yes,No,No,Cherie Gibbens,Urban
Ampilatwatja School,"N/A, Ampilatwatja (Ammaroo), NT",", PMB 84, Alice Springs, 0872, NT",Barkly,n/a,admin.ampilat@education.nt.gov.au,(08) 8956 9265,(08) 8956 9799,Government,Yes,Yes,Yes,Yes,Yes,Rachael Byles,Remote Category 3
Angurugu Pre School,"N/A, Angurugu, NT",", , , ",East Arnhem,,,(08) 89876255,(08) 8987 6106,,No,No,No,No,No,,
Angurugu School,"N/A, Angurugu, NT","PO Box 40, Alyangula, Groote Eylandt, 0885, NT",East Arnhem,n/a,admin.angurcec@education.nt.gov.au,(08) 8987 6355,(08) 8987 6106,Government,Yes,Yes,Yes,Yes,Yes,Alessa Fremmer,Remote Category 3
Anula Pre School,"73 Yanyula Dr, Anula, NT",", , , ",Darwin,,,(08) 899 77500,,,No,Yes,No,No,No,,
Anula Primary School,"73 Yanyula Dr, Anula, 0812, NT","Yanyula Drive, ANULA, 0812, NT",Darwin,http://www.anulaprimaryschool.com/,anula.admin@education.nt.gov.au,(08) 899 77500,,Government,No,Yes,Yes,No,No,Brian Hyke,Urban
Araluen Christian School,"10 Blain St, Alice Springs, NT","10 Blain Street, Alice Springs, 0870, NT",Central,http://www.acc.nt.edu.au,admin.acc@ntschools.net,(08) 8955 3300,,Christian,No,No,Yes,Yes,No,Rob Pople,
Areyonga School,"wsw of Hermannsburg, 224km from Alice Springs, Areyonga, NT","Areyonga, via Alice Springs, 0872, NT",Central,n/a,toby.brown@education.nt.gov.au,(08) 8956 7303,(08) 8956 7213,Government,No,No,Yes,Yes,No,Toby Brown,Remote Category 2
Arlparra School,", Arlparra Community, Utopia, NT","PMB 18, via ALICE SPRINGS, 0872, NT",Barkly,n/a,stephen.nimmo@education.nt.gov.au,(08) 8956 9178,(08) 8956 9182,Government,Yes,Yes,Yes,Yes,Yes,Stephen Nimmo,Remote Category 3
Australian International Islamic College,"25 Bowerlee Road, Berrimah NT 0828, NT","25 Bowerlee Road, Berrimah, 0828, NT",Darwin,https://aiic.qld.edu.au/darwin-campus/,nt.admin@aiic.nt.edu.au,(08) 7918 2786,n/a,Independent,No,No,Yes,No,No,Andrew Taylor,
Bakewell Pre School,"5 Hutchison Tce, Bakewell, 0832, NT","tba, tba, 0832, ",Top End,,,(08) 899 77400,,,No,Yes,No,No,No,,
Bakewell Primary School,"1 Forrest Parade, Bakewell, 0832, NT","PO Box 1300, PALMERSTON, 0831, NT",Top End,http://www.bakewellprimary.nt.edu.au,admin.bakewell@education.nt.gov.au,(08) 899 77400,,Government,No,Yes,Yes,No,No,Danielle HALL,Urban
Baniyala Garrangali School,"Yilpara Community, Yirrkala, 0880, NT","PO Box 1496, NHULUNBUY, 0881, NT",East Arnhem,n/a,stephanie.valcanis@education.nt.gov.au,(08) 8987 9114,(08) 8987 9417,Government,No,Yes,Yes,Yes,Yes,Stephanie Valcanis,Remote Category 3
Barunga School,"N/A, Barunga  (Bamyili), NT","PMB 117, via Katherine, 0851, NT",Big Rivers,n/a,office.barunga@education.nt.gov.au,(08) 8975 4502,(08) 8975 4616,Government,Yes,Yes,Yes,Yes,Yes,Malcolm Hales,Remote Category 2
Batchelor Area School,"71 Kirra Cres, Batchelor, 0845, NT","c/-, Batchelor Post Office, 0845, NT",Top End,https://www.batchelorschool.com.au/,batchelor.as@education.nt.gov.au,(08) 8976 0077,(08) 8976 0008,Government,No,Yes,Yes,Yes,No,Sarah Filosi,Remote Special Category
Batchelor Pre School,"71 Kirra Cres, Batchelor, NT",", , , ",Top End,,,(08) 8976 0077,(08) 8976 0008,,No,Yes,No,No,No,,
Bees Creek Pre School,"20 Sattler Cres, Freds Pass, NT",", , , ",Top End,,,(08) 8983 3222,(08) 8983 3120,,No,Yes,No,No,No,,
Bees Creek Primary School,"20 Sattler Cres, Freds Pass, NT","PO Box 1500, Coolalinga, 0839, NT",Top End,http://beescreekschool.com/,bees.creek@education.nt.gov.au,(08) 8983 3222,(08) 8983 3120,Government,No,Yes,Yes,No,No,Emma Hansen,Urban
Belyuen School,"N/A, Belyuen, NT","PMB 2, GPO Darwin, 0801, NT",Top End,n/a,natasha.koroi@education.nt.gov.au,(08) 8978 5085,(08) 8978 5063,Government,Yes,Yes,Yes,No,No,Natasha Koroi,Remote Category 2
Berry Springs Pre School,"1150 Cox Peninsula Rd, Berry Springs, NT",", , , ",Top End,,,(08) 7923 0366,(08) 8988 6151,,No,Yes,No,No,No,,
Berry Springs Primary School,"1150 Cox Peninsula Rd, Berry Springs, 0838, NT","PO Box 135, Berry Springs, 0838, NT",Top End,http://berryspringsprimary.nt.edu.au/,berrysprings.primary@education.nt.gov.au,(08) 7923 0366,n/a,Government,No,Yes,Yes,No,No,Carlie Mamo,Urban
Bonya School,"Community ID 26, Orrtipa-Thurra (Bonya), NT","PMB 69, via Alice Springs, 0872, NT",Central,n/a,juliet.mokoto@education.nt.gov.au,(08) 8956 6352,(08) 8956 6304,Government,No,Yes,Yes,Yes,No,Juliet Mokoto,Remote Category 3
Borroloola Pre School,"321 Robinson Road, Borroloola, NT",", , , ",Big Rivers,,,(08) 89 758780,(08) 89758819,,No,No,No,No,No,,
Borroloola School,"321 Robinson Rd, Borroloola, 0854, NT","PMB 5, Borroloola, 0854, NT",Big Rivers,https://www.borroloolaschool.nt.edu.au/,admin.borrosch@education.nt.gov.au,(08) 896 51800,N/A,Government,Yes,Yes,Yes,Yes,Yes,Stephanie Blitner,Remote Category 3
Bradshaw Pre School,"23 Adamson Ave, Alice Springs, NT",", , , ",Central,,,(08) 895 52100,,,No,Yes,No,No,No,,
Bradshaw Primary School,"23 Adamson Ave, Alice Springs, 0870, NT","PO Box 1744, ALICE SPRINGS, 0871, NT",Central,https://www.bradshawprimary.nt.edu.au/,bradshaw.school@education.nt.gov.au,(08) 895 52100,,Government,No,Yes,Yes,No,No,Tim O'Sullivan,Urban
Braitling Pre School,"80 Head St, Alice Springs, NT",", , , ",Central,,,(08) 8985 8511,,,No,Yes,No,No,No,,
Braitling Primary School,"80 Head St, Alice Springs, 0870, NT","PO Box  1669, ALICE SPRINGS, 0871, NT",Central,http://www.braitlingprimary.nt.edu.au,admin.braitsch@education.nt.gov.au,(08) 895 85111,,Government,Yes,Yes,Yes,No,No,Donna Wright,Urban
Bulla Camp School,"N/A, Bulla, NT","PMB 89, Katherine, 0851, NT",Big Rivers,n/a,debbie.bailey1@education.nt.gov.au,(08) 9167 8957,(08) 9168 7325,Government,No,Yes,Yes,Yes,No,Debbie Bailey,Remote Category 3
Bulman School,"N/A, Bulman, NT","PMB 13, Katherine, 0851, NT",Big Rivers,n/a,adam.cox@education.nt.gov.au,(08) 8975 4707,(08) 8975 4743,Government,No,Yes,Yes,Yes,Yes,Adam Cox,Remote Category 3
Callistemon House,"80 Callistemon Dr, Katherine East, 0850, NT","PO Box 1971, Katherine East, 0851, NT",Big Rivers,https://callistemonhouse.nt.edu.au/,admin.callistemon@education.nt.gov.au,(08) 8972 3212,8972 3233,Government,No,No,No,No,No,Jayme Kot,Urban
Canteen Creek School,"N/a, Canteen Creek, NT","PMB 105, via Alice Springs, 0872, NT",Barkly,n/a,admin.cantesch@education.nt.gov.au,(08) 8964 1505,(08) 8964 1505,Government,Yes,Yes,Yes,Yes,Yes,Natalie Law,Remote Category 3
Casuarina Senior College,"61 Parer Dr, Moil, 0810, NT","PO Box  40196, CASUARINA, 0811, NT",Darwin,http://www.casuarinaseniorcollege.com.au/,csc.admin@education.nt.gov.au,(08) 898 37300,(08) 8928 0020,Government,No,No,No,No,Yes,Glenn Dixon,Urban
Casuarina Street Pre School,"Casuarina St, Katherine East, NT",", , , ",Big Rivers,,,(08) 897 33800,(08) 8972 3791,,No,Yes,No,No,No,,
Casuarina Street Primary School,"Casuarina St, Katherine East, 0850, NT","PO Box 1046, KATHERINE, 0851, NT",Big Rivers,https://casuarinastreet.com.au/,casuarina.admin@education.nt.gov.au,(08) 897 33800,n/a,Government,No,Yes,Yes,No,No,Nicolle Gadd,Urban
Centralian Middle School,"56 Milner Rd, Alice Springs, 0870, NT","PO Box 1771, ALICE SPRINGS, 0871, NT",Central,http://cms.nt.edu.au,centralian.middle@education.nt.gov.au,(08) 895 52333,(08) 8952 6614,Government,No,No,No,Yes,No,Glenda McCarthy,Urban
Centralian Senior College,"10 Grevillea Drive, Alice Springs, 0870, NT","PO Box 4856, ALICE SPRINGS, 0871, NT",Central,HTTP://centralianseniorcollege.com.au,admin.centraliansc@education.nt.gov.au,(08) 895 85000,08 8952 1256,Government,No,No,No,No,Yes,Joanne Alford,Urban
Clyde Fenton Pre School,"101 Giles St, Katherine, NT",", , , ",Big Rivers,,,(08) 897 33855,,,No,Yes,No,No,No,,
Clyde Fenton Primary School,"101 Giles St, Katherine, 0850, NT","PO Box 421, KATHERINE, 0851, NT",Big Rivers,https://cfs.nt.edu.au/,admin.clydesch@education.nt.gov.au,(08) 897 33844,,Government,No,Yes,Yes,No,No,Lynnelle Rankine,Urban
Darwin High School,"10 Atkins Dr, The Gardens, 0820, NT","Bullocky Point, DARWIN, 0820, NT",Darwin,http://www.darwinhigh.nt.edu.au,darwin.high@education.nt.gov.au,(08) 899 91222,(08) 8981 2137,Government,No,No,No,No,Yes,Jill Hazeldine,Urban
Darwin Languages Centre,"1 Nemarluk Dr, Ludmilla, NT, NT","P O Box 822, Nightcliff, 0814, NT",Darwin,https://www.darwinlanguagescentre.nt.edu.au/,dlc.nt@education.nt.gov.au,(08) 899 77000,,Government,No,No,No,No,No,Salima Spring,Urban
Darwin Middle School,"Atkins Drive, The Gardens, NT 0820, not available, NT","PO Box 2257, PARAP, 0804, NT",Darwin,http://www.darwinmiddle.nt.edu.au,admin.darwinmiddle@education.nt.gov.au,(08) 894 25200,08 89425211,Government,No,No,No,Yes,No,Ben McCasker,Urban
Dhupuma Barker,"Gunyangara East Arnhem Land, , NT","PO Box 39, Nhulunbuy, 0881, NT",East Arnhem,https://www.barker.college/about-barker/indigenous-education/dhupuma-barker/,pheath@barker.nsw.edu.au,(08) 8438 7201,n/a,Independent,No,Yes,Yes,No,No,Phillip Heath,
Douglas Daly School,"Jungawa Rd, Douglas-Daly, NT","PMB 46, via Winnellie, 0822, NT",Top End,http://www.douglasdalyschool.nt.edu.au/,rosemary.sullivan@education.nt.gov.au,(08) 8978 2836,(08) 8978 2512,Government,No,Yes,Yes,No,No,Rosemary Sullivan,Remote Category 2
Dripstone Middle School,"10 Delamere St, Tiwi, 0810, NT","PO Box  41370, CASUARINA, 0811, NT",Darwin,http://www.dripstonemiddle.nt.edu.au,dripstone.middle@education.nt.gov.au,(08) 898 37777,,Government,No,No,No,Yes,No,Nektaria Pikoulos,Urban
Driver Pre School,"37 Driver Ave, Driver, NT",", , , ",Top End,,,(08) 893 59055,,,No,Yes,No,No,No,,
Driver Primary School,"37 Driver Ave, Driver, 0830, NT","PO Box  33, PALMERSTON, 0831, NT",Top End,http://www.driverprimary.nt.edu.au,admin.drivesch@education.nt.gov.au,(08) 893 59000,,Government,No,Yes,Yes,No,No,Warwick Peter-Budge,Urban
Dundee Beach School,"500 Namarada Dr, Dundee Beach, NT","PO Box 145, Dundee Beach, 0840, NT",Top End,n/a,dundee.school@education.nt.gov.au,(08) 8978 2212,,Government,No,Yes,Yes,No,No,Leon Syme,Remote Category 2
Durack Pre School,"50 Woodlake Blvd, Durack, NT",", , , ",Top End,,,(08) 899 77555,,,No,Yes,No,No,No,,
Durack Primary School,"50 Woodlake Bvd, Durack, 0830, NT","PO Box  225, PALMERSTON, 0830, NT",Top End,http://www.durackschool.nt.edu.au,durack.school@education.nt.gov.au,(08) 899 77555,,Government,No,Yes,Yes,No,No,Cindy McLaren,Urban
Elliott School,"91 Bray St, Elliott, NT","C/- Elliott Post Office, Elliott, 0862, NT",Barkly,n/a,kevin.gaskin@education.nt.gov.au,(08) 8969 2122,(08) 8969 2053,Government,Yes,Yes,Yes,Yes,No,Kevin Gaskin,Remote Category 1
Epenarra School,"N/A, Wutunugurra (Epenarra), NT","PMB 270, via Alice Springs, 0861, NT",Barkly,n/a,jennifer.cadzow@education.nt.gov.au,(08) 8964 1512,(08) 8964 1689,Government,Yes,Yes,Yes,Yes,Yes,Jennifer Cadzow,Remote Category 3
Family as First Teachers,"Mitchell St, Darwin, 0800, NT","GPO Box 4821, Darwin, 0801, NT",Darwin,n/a,faft.doe@education.nt.gov.au,(08) 899 93550,8999 5677,Government,No,Yes,Yes,No,No,,n/a
Finke School,"N/A, Finke, NT","PMB 30, via Alice Springs, 0871, NT",Central,n/a,finke.school@education.nt.gov.au,(08) 8956 0960,(08) 8956 0960,Government,No,No,Yes,Yes,No,Helen Lopinski,Remote Category 3
Forrest Parade School,"120 Flynn Circuit, Bellamack, 0832, NT","120 Flynn Circuit, Bellamack, 0832, NT",Top End,https://forrestparadeschool.nt.edu.au/wp/,admin.forrestps@education.nt.gov.au,(08) 899 77111,,Government,No,No,No,No,No,Annie Keighran,Urban
Gapuwiyak Pre School,"N/A, Gapuwiyak, NT",", , , ",East Arnhem,,,(08) 8987 9122,(08) 8987 9109,,No,No,No,No,No,,
Gapuwiyak School,"N/a, Gapuwiyak, NT","PMB 900, Via Winnellie, 0822, NT",East Arnhem,n/a,christopher.oneill@education.nt.gov.au,(08) 8987 9122,(08) 8987 9109,Government,Yes,Yes,Yes,Yes,Yes,Christopher O'Neill,Remote Category 3
Gawa Christian School,"Gawa, Elcho Island, Gawa, NT","PMB 257, Elcho Island via Winnellie, 0822, NT",Top End,https://gcs.nt.edu.au/,admin.gcs@ntschools.net,8970 5210,8970 5210,Christian,No,No,Yes,Yes,Yes,Rachel Herweynen,
Gillen Pre School,"12 Newland St, Alice Springs, NT",", , , ",Central,,,(08) 8952 2355,(08) 89534804,,No,Yes,No,No,No,,
Gillen Primary School,"55 Milner Rd, Alice Springs, 0870, NT","PO Box 769, ALICE SPRINGS, 0871, NT",Central,http://www.gillenprimary.nt.edu.au/,gillen.school@education.nt.gov.au,(08) 895 52155,-,Government,Yes,Yes,Yes,No,No,Donna O'Brien,Urban
Girraween Pre School,"25 Carruth Rd, Girraween, NT",", , , ",Top End,,,(08) 8983 3300,(08) 8983 4202,,No,Yes,No,No,No,,
Girraween Primary School,"25 Carruth Rd, Girraween, 0835, NT","PO Box 1042, HOWARD SPRINGS, 0835, NT",Top End,http://www.girraweenprimary.nt.edu.au/,admin.girrasch@education.nt.gov.au,(08) 8983 3300,(08) 8983 4202,Government,No,Yes,Yes,No,No,Megan McKenzie,Urban
Good Shepherd - Leanyer Campus,"94 Leanyer Drive, Leanyer, NT","PO Box 1146, Howard Springs, 0831, NT",Darwin,http://www.goodshepherd.nt.edu.au,admin@goodshepherd.nt.edu.au,(08) 8983 0333,,Independent,No,Yes,Yes,No,No,Matthew Qualischefski,n/a
Good Shepherd Lutheran College,"Cnr Whitewood Rd and Kundook Place, Howard Springs, NT","PO Box 1146, Howard Springs, 0831, NT",Top End,http://www.goodshepherd.nt.edu.au,admin@goodshepherd.nt.edu.au,08 8983 0333,(08) 8983 0333,Independent,No,Yes,Yes,Yes,Yes,Matthew Qualischefski,
Good Shepherd Lutheran School,"Cnr Emery Ave and Temple Tce, Palmerston, NT","PO Box 1146, Howard Springs, 0831, NT",Top End,http://www.goodshepherd.nt.edu.au,admin@goodshepherd.nt.edu.au,(08) 8983 0333,(08) 8983 0333,Independent,No,No,Yes,No,No,Matthew Qualischefski,
Gray Pre School,"22 Victoria Dr, Gray, NT",", , , ",Top End,,,(08) 8932 1700,(08) 8932 1007,,No,Yes,No,No,No,,
Gray Primary School,"22 Victoria Drive, Gray, 0830, NT","Victoria Drive, GRAY, 0830, NT",Top End,http://www.grayprimary.nt.edu.au,admin.graysch@education.nt.gov.au,(08) 8932 1700,(08) 8932 1007,Government,Yes,Yes,Yes,No,No,Donna Westaway,Urban
Gunbalanya Pre School,"N/a, Gunbalanya, NT",", , , ",Top End,,,(08) 8979 0181,(08) 8979 0143,,No,No,No,No,No,,
Gunbalanya School,"N/A, Gunbalanya, NT","PMB 66, Gunbalanya, 0822, NT",Top End,http://www.gunbalanyaschool.nt.edu.au/,admin.gunbacec@education.nt.gov.au,(08) 8979 0181,(08) 8979 0143,Government,Yes,Yes,Yes,Yes,Yes,Sue Trimble,Remote Category 3
Haasts Bluff School,"N/A, Haasts Bluff (Ikuntji), 0872, NT","Haasts Bluff, via Alice Springs, 0872, NT",Central,n/a,geoff.gillman@education.nt.gov.au,(08) 8956 8550,(08) 8956 8550,Government,No,Yes,Yes,Yes,No,Geoff Gillman,Remote Category 3
Haileybury Rendall School,"6057 Berrimah Road, Berrimah, NT","PO Box 241, Berrimah, 0828, NT",Darwin,http://www.haileyburyrendall.com.au,andrew.mcgregor@haileybury.com.au,(08) 8922 1611,(08) 8947 792,Independent,No,No,No,Yes,Yes,Andrew McGregor,
Harts Range School,"N/A, Atitjere (Harts Range), NT","PMB 162, via Alice Springs, 0871, NT",Central,n/a,kylie.mckay@education.nt.gov.au,(08) 8956 9771,(08) 8956 9515,Government,Yes,Yes,Yes,Yes,No,Kylie McKay,Remote Category 2
Henbury School,"11 Henbury Avenue, Tiwi, 0810, NT","11 Henbury Avenue, Tiwi, 0810, NT",Darwin,http://www.henburyschool.org.au/,henbury.admin@education.nt.gov.au,(08) 899 77077,,Government,No,No,No,Yes,Yes,Sarah Corry,Urban
Holy Family Catholic School,"20 Calytrix Road, Karama, NT","PO Box 40870, Casuarina, 0812, NT",Darwin,http://www.holyfamilynt.catholic.edu.au/,admin.holyfamily@nt.catholic.edu.au,(08) 89276188,(08) 8945 2254,Catholic,No,No,Yes,No,No,jennifer Rudyard,
Holy Spirit Catholic School,"278 Gsell Street, Wulagi, NT","PO Box 40030, Casuarina, 0810, NT",Darwin,http://www.holyspiritnt.catholic.edu.au/,admin.holyspirit@nt.catholic.edu.au,(08) 8927 3411,(08) 8927 9971,Catholic,No,No,Yes,No,No,Paula Sellars,
Howard Springs Pre School,"295 Whitewood Rd, Howard Springs, NT",", , , ",Top End,,,(08) 8983 0000,(08) 8983 1834,,No,Yes,No,No,No,,
Howard Springs Primary School,"295 Whitewood Rd, Howard Springs, 0835, NT","PO Box  171, HOWARD SPRINGS, 0835, NT",Top End,http://www.howardspringsprimary.nt.edu.au/,howard.springs@education.nt.gov.au,(08) 898 30000,(08) 8983 1834,Government,No,Yes,Yes,No,No,Narelle Dahl,Urban
Humpty Doo Pre School,"50 Freds Pass Rd, Humpty Doo, NT",", , , ",Top End,,,(08) 792 30400,(08) 8988 1845,,No,Yes,No,No,No,,
Humpty Doo Primary School,"50 Freds Pass Rd, Humpty Doo, 0836, NT","PO Box 46, HUMPTY DOO, 0836, NT",Top End,tba,admin.humptydoo@education.nt.gov.au,(08) 792 30400,,Government,No,Yes,Yes,No,No,Carrie White,Urban
Ida Standley Pre School,"15 Parke Cres, Alice Springs, NT",", , , ",Central,,,(08) 8952 1040,(08) 8952 1040,,No,No,No,No,No,,
Jabiru Area School,"40 Waterhouse Rd, Jabiru, NT","PO Box  246, Jabiru, 0886, NT",Top End,n/a,jabiru.areaschool@education.nt.gov.au,(08) 8938 3333,(08) 89 38 3344,Government,Yes,Yes,Yes,Yes,Yes,Amy Tambling,Remote Special Category
Jabiru Pre School,"40 Waterhouse Rd, Jabiru, NT",", , , ",Top End,,,(08) 8938 3333,(08) 8979 2792,,No,Yes,No,No,No,,
Jilkminggan School,"N/A, Jilkminggan (Duck Creek), NT","PO Box 4054, Mataranka, 0852, NT",Big Rivers,n/a,admin.jilkmsch@education.nt.gov.au,(08) 8975 4896,(08) 8975 4897,Government,Yes,Yes,Yes,Yes,Yes,Callum Brown,Remote Category 2
Jingili Preschool,"10 Jingili Tce, Jingili, NT",", , , ",Darwin,,,(08) 8985 3495,(08) 8948 4129,,No,Yes,No,No,No,,
Jingili Primary School,"17 Rindberg St, Jingili, 0810, NT","PO Box 40600, CASUARINA, 0810, NT",Darwin,http://www.jingiliprimary.nt.edu.au/,jingili.school@education.nt.gov.au,(08) 898 37555,,Government,No,Yes,Yes,No,No,Mark Mangohig,Urban
Kalkaringi Pre School,"Whitlam St, Kalkaringi (Wave hill), NT",", , , ",Big Rivers,,,(08) 8965 1888,,,No,No,No,No,No,,
Kalkaringi School,"Whitlam st, Kalkaringi (Wave hill), NT","PMB 41, KATHERINE, 0852, NT",Big Rivers,,anne.saunders@education.nt.gov.au,(08) 896 51888,,Government,Yes,Yes,Yes,Yes,Yes,Anne Saunders,Remote Category 3
Karama Pre School,"37 Livistona Rd, Karama, NT",", , , ",Darwin,,,(08) 898 37711,,,No,Yes,No,No,No,,
Karama Primary School,"37 Livistona Rd, Karama, 0812, NT","PO Box 103, Karama, 0813, NT",Darwin,https://www.karamaschool.nt.edu.au/,karama.school@education.nt.gov.au,(08) 898 37700,,Government,No,Yes,Yes,No,No,Maria Albion,Urban
Katherine Flexible Learning Centre,"5 Kintore St, Katherine, 0850, NT","PO Box 189, Katherine, 0851, NT",Big Rivers,n/a,tba,(08) 897 38200,n/a,Government,No,No,No,No,No,,Urban
Katherine High School,"Grevillea Rd, Katherine East, 0850, NT","PO Box 189, KATHERINE, 0851, NT",Big Rivers,https://www.katherinehighschool.com.au/,admin.kathehs@education.nt.gov.au,(08) 897 38200,,Government,No,No,No,Yes,Yes,Ruth Miller,Urban
Katherine School Of The Air,"101 Giles St, Katherine, 0850, NT","PO Box 531, KATHERINE, 0851, NT",Big Rivers,https://www.ksa.nt.edu.au/,kath.soa@education.nt.gov.au,(08) 896 51555,,Government,No,Yes,Yes,Yes,No,Donna Bryant,Urban
Katherine South Pre School,"Riverbank Drive, Katherine, NT",", , , ",Big Rivers,,,(08) 8972 1277,(08) 8972 1857,,No,Yes,No,No,No,,
Katherine South Primary School,"Riverbank Dr, Katherine, 0850, NT","PO Box 721, KATHERINE, 0851, NT",Big Rivers,https://www.katherinesouthprimary.nt.edu.au/,admin.kathesch@education.nt.gov.au,(08) 8972 1277,,Government,No,Yes,Yes,No,No,Chris Errington,Urban
Kiana School,"N/A, Kiana, NT","PMB 33, via Tennanat Creek, 0861, NT",Big Rivers,,tba,(08) 8975 9820,(08) 8975 9816,Government,No,Yes,Yes,Yes,No,tba tba,Remote Category 3
Kintore Street Pre School,"11 Kintore St, Katherine, NT",", , , ",Big Rivers,,,(08) 8973 3888,(08) 8971 0462,,No,Yes,No,No,No,,
Kintore Street School,"11 Kintore St, Katherine, 0872, NT","PO Box 1931, KATHERINE, 0851, NT",Big Rivers,n/a,kintore.admin@education.nt.gov.au,(08) 8973 3888,(08) 8971 0462,Government,No,No,Yes,Yes,Yes,Sally Lovering,Urban
Lajamanu Pre School,"N/A, Lajamanu (Hooker Ck), NT",", , , ",Big Rivers,,,(08) 89750 946,(08) 89750948,,No,No,No,No,No,,
Lajamanu School,"N/A, Lajamanu ( Hooker Ck), NT","PMB 63, via Katherine, 0851, NT",Big Rivers,n/a,admin.lajamcec@education.nt.gov.au,(08) 8975 0946,(08) 8975 0948,Government,Yes,Yes,Yes,Yes,Yes,Theo Vanzyl,Remote Category 3
Laramba School,"N/A, Laramba (Napperby), NT","PMB 213, via Alice Springs, 0872, NT",Central,n/a,laramba.school@education.nt.gov.au,(08) 8956 8771,(08) 8956 8779,Government,No,Yes,Yes,Yes,Yes,Michael Ryan,Remote Category 2
Larapinta Pre School,"22 Albrecht Dr, Alice Springs, NT",", , , ",Central,,,(08) 895 85145,,,No,Yes,No,No,No,,
Larapinta Primary School,"22 Albrecht Dr, Alice Springs, NT","PO Box 9021, ALICE SPRINGS, 0871, NT",Central,http://www.larapintaprimary.nt.edu.au,larapinta.primary@education.nt.gov.au,(08) 895 85155,,Government,Yes,Yes,Yes,No,No,Brenda Jolley,Urban
Larrakeyah Pre School,"3 Packard St, Larrakeyah, NT",", , , ",Darwin,,,(08) 8981 9091,(08) 8981 9062,,No,Yes,No,No,No,,
Larrakeyah Primary School,"3 Packard St, Larrakeyah, 0820, NT","PO Box 412, DARWIN, 0801, NT",Darwin,http://www.larrakeyahprimary.nt.edu.au,larrakeyah.admin@education.nt.gov.au,(08) 8981 3211,(08) 8981 9062,Government,No,Yes,Yes,No,No,Fathma Mauger,Urban
Laynhapuy Homelands School,"Galpu Rd, Yirrkala, NT","PMB 747, Nhulunbuy, 0881, NT",East Arnhem,n/a,lhs.admin@ntschools.net,(08) 898 71224,(08) 8987 1981,Government,Yes,No,Yes,Yes,Yes,Abigail White,Remote Category 1
Leanyer Pre School,"114 Leanyer Dr, Leanyer, NT",", , , ",Darwin,,,(08) 8927 4022,(08) 8927 2566,,No,Yes,No,No,No,,
Leanyer Primary School,"114 Leanyer Drive,, Leanyer, 0812, NT","114 Leanyer Drive, LEANYER, 0812, NT",Darwin,http://leanyerschool.nt.edu.au,admin.leanyer@education.nt.gov.au,(08) 8927 4022,(08) 8927 2566,Government,No,Yes,Yes,No,No,Leah Crockford,Urban
Living Waters Lutheran School,"Corner Albrecht Drive and Kramer Street, Alice Springs, NT","PO Box 8869, Alice Springs, 0871, NT",Central,tba,lisa.goldsworthy@ntschools.net,(08) 8950 0700,(08) 8955 0435,Independent,No,No,Yes,No,No,Lisa Goldsworthy,
Ltyentye Apurte Catholic School,"35 Church Street, Santa Teresa (Ltyenty Apurte), NT","Santa Teresa, PMB 221, via A/Springs, 0871, NT",Central,http://www.lacecnt.catholic.edu.au,la.admin@nt.catholic.edu.au,(08) 8956 0937,(08) 8956 0963,Catholic,No,Yes,Yes,Yes,No,Justin Colley,Remote Category 2
Ludmilla Pre School,"41 Bagot Rd, Ludmilla, NT",", , , ",Darwin,,,(08) 898 37889,(08) 8999 3232,,No,Yes,No,No,No,,
Ludmilla Primary School,"41 Bagot Rd, Ludmilla, 0820, NT","PO Box 39945, WINNELLIE, 0821, NT",Darwin,http://www.ludmillaprimary.nt.edu.au,admin.ludmilla@education.nt.gov.au,(08) 898 37888,n/a,Government,Yes,Yes,Yes,No,No,Carol Putica,Urban
MacFarlane Pre School,"Grevillea Rd, Katherine East, NT",", , , ",Big Rivers,,,(08) 8972 3069,(08) 8972 1966,,No,Yes,No,No,No,,
MacFarlane Primary School,"42 Grevillea Rd, Katherine East, 0850, NT","42 Grevillea Road, KATHERINE EAST, 0850, NT",Big Rivers,http://www.macfarlaneprimary.nt.edu.au,admin.macfasch@education.nt.gov.au,(08) 896 51700,,Government,Yes,Yes,Yes,No,No,Philip Russell,Urban
Mackillop Catholic College,"285 Farrar Boulevard, Johnston, NT","P O Box 2608, Palmerston, 0831, NT",Top End,www.mackillopnt.catholic.edu.au,mackillopcollege@nt.catholic.edu.au,08 8930 5757,08 8930 5700,Catholic,No,No,No,Yes,Yes,Lucas Hurley,
Malak Pre School,"45 Malak Cres, Malak, NT",", , , ",Darwin,,,(08) 899 77600,,,No,Yes,No,No,No,,
Malak Primary School,"45 Malak Cres, Malak, 0812, NT","45 Malak Crescent, MALAK, 0812, NT",Darwin,http://www.malakprimary.nt.edu.au,admin.malak@education.nt.gov.au,(08) 899 77600,,Government,Yes,Yes,Yes,No,No,Samantha Brannelly,Urban
Mamaruni School,"N/A, Minjilang (Croker Is), NT","PMB 47, via Winnellie, 0822, NT",Top End,http://www.mamarunischool.nt.edu.au/,tracy.brislane@education.nt.gov.au,(08) 8979 0255,(08) 8979 0256,Government,Yes,Yes,Yes,Yes,No,Tracy Brislane,Remote Category 3
Maningrida College,"n/a, Maningrida, 0822, NT","PMB 67, via Winnellie, 0822, NT",Top End,http://www.maningridacollege.nt.edu.au/,maningrida.cec@education.nt.gov.au,(08) 8979 5950,,Government,No,Yes,Yes,Yes,Yes,Brooke Sweeney,Remote Catefory 3
Manunda Terrace Pre School,"31 Manunda Tce, Karama, NT",", , , ",Darwin,,,(08) 899 77366,,,No,Yes,No,No,No,,
Manunda Terrace Primary School,"31 Manunda Tce, Karama, 0812, NT","31 Manunda Tce, KARAMA, 0812, NT",Darwin,https://www.manundaterraceprimaryschool.com/,manunda.school@education.nt.gov.au,(08) 899 77366,,Government,No,Yes,Yes,No,No,Kathryn Stanislaus,Urban
Manyallaluk School,"N/A, Manyallaluk (Eva Valley), NT","PO Box 271, Katherine, 0851, Nt",Big Rivers,n/a,admin.manyasch@education.nt.gov.au,(08) 8975 4438,(08) 8975 4563,Government,No,Yes,Yes,No,No,Ben Kleinig,Remote Category 2
Mapuru Yirralka College,"Dhabulu Road, Mapuru, NT 0822, NT","PMB 301, Winnellie, 0821, NT",East Arnhem,http://www.yirralka.nt.edu.au,principal@yirralka.nt.ed.au,(08) 8970 4994,8970 4994,Independent,No,No,No,No,No,Debra Bateman,
Marrara Christian College,"110 Amy Johnson Ave, Marrara, NT","PO Box 84, Karama, 0812, NT",Darwin,http://www.mcc.nt.edu.au,admin.mcc@ntschools.net,(08) 8920 2000,(08) 8920 2001,Christian,No,Yes,Yes,Yes,Yes,Bill Rusin,
Mataranka School,"Roper Terrace, Mataranka, 0852, NT","PO Box 4022, Mataranka, 0852, NT",Big Rivers,n/a,telka.zotz@education.nt.gov.au,(08) 8975 4543,(08) 8975 4605,Government,Yes,Yes,Yes,Yes,No,Telka Zotz,Remote Category 1
Mbunghara School,"N/A, Mbunghara, NT","PMB 242, via Alice Springs, 0872, NT",Central,n/a,mbunghara.school@education.nt.gov.au,(08) 8956 8503,(08) 8956 8503,Government,No,No,Yes,Yes,Yes,Makhdoom Bhatti,Remote Category 3
Middle Point School,"615 Anzac Pde, Middle Point, NT","PO Box 96, Humpty Doo, 0836, NT",Top End,http://www.middlepointschool.nt.edu.au/,middle.pt@education.nt.gov.au,(08) 8988 1688,(08) 8988 8023,Government,No,No,Yes,No,No,Stacey Marsh,Urban
Milikapiti School,"N/A, Milikapiti (Snake Bay), NT","PMB 96, via Winnellie, 0822, NT",Top End,n/a,gabrielle.field@education.nt.gov.au,(08) 8978 3960,(08) 8978 3925,Government,Yes,Yes,Yes,Yes,No,Gabrielle Field,Remote Category 2
Milingimbi School,"N/A, Milingimbi, 0822, NT","PMB 54, Milingimbi, via WINNELLIE, 0822, NT",East Arnhem,n/a,adam.dicks1@education.nt.gov.au,(08) 8987 9902,(08) 8987 9926,Government,Yes,Yes,Yes,Yes,Yes,Adam Dicks,Remote Category 3
Milkwood Steiner School,"107 Boulter Road, Berrimah, NT","PO Box 357, Berrimah, 0828, NT",Darwin,http://www.milkwood.nt.edu.au/,admin@milkwood.nt.edu.au,08 8947 1669,,Independent,No,Yes,Yes,No,No,Netanela Mizrahi,
Millner Pre School,"41 Sabine Rd, Millner, NT",", , , ",Darwin,,,(08) 792 30333,,,No,Yes,No,No,No,,
Millner Primary School,"41 Sabine Rd, Millner, 0810, NT","41 Sabine Rd, MILLNER, 0810, NT",Darwin,http://www.millnerprimary.nt.edu.au,admin.millnerps@education.nt.gov.au,(08) 792 30333,,Government,No,Yes,Yes,No,No,Jessica Goveas,Urban
Milyakburra School,"N/A, Milyakburra (Bickerton Island), NT","PMB 5, Bickerton Island, via Winnellie, 0822, NT",East Arnhem,n/a,angela.lawrence@education.nt.gov.au,(08) 8987 6084,,Government,No,Yes,Yes,Yes,Yes,Angela Lawrence,Remote Category 3
Mimik-Ga Centre,"4 Henbury Ave, Wanguri, 0810, NT","PO Box 40519, Casuarina, 0811, NT",Darwin,n/a,admin.mimik-ga@education.nt.gov.au,(08) 898 37900,(08) 8945 2193,Government,Yes,Yes,Yes,No,No,Angela Seymour,Urban
Minyerri Pre School,"N/A, Minyerri (Hodgson Downs), NT",", , , ",Big Rivers,,,(08) 8975 9972,(08) 8975 9893,,No,Yes,No,No,No,,
Minyerri School,"N/A, Minyerri (Hodgson Downs), NT","PMB 40, KATHERINE, 0851, NT",Big Rivers,n/a,garry.reeve@education.nt.gov.au,(08) 8975 9972,(08) 8975 9893,Government,Yes,Yes,Yes,Yes,Yes,Garry Reeve,Remote Category 3
Moil Pre School,"Moil Crescent, Moil, NT",", , , ",Darwin,,,(08) 898 37535,(08) 8920 6869,,No,Yes,No,No,No,,
Moil Primary School,"37 Lanyon Tce, Moil, 0810, NT","37 Lanyon Tce, MOIL, 0810, NT",Darwin,http://www.moilschool.nt.edu.au,admin.moilsch@education.nt.gov.au,(08) 898 37530,(08) 8920 6869,Government,No,No,No,No,No,Erin Ranie,Urban
Mother Teresa Catholic Primary School,"16 Ginger St, Zuccoli, NT","PO Box 1125, Palmerston, 0830, NT",Top End,www.mtcpsnt.catholic.edu.au,principal.motherteresa@nt.catholic.edu.au,(08) 7969 5600,,Catholic,No,No,Yes,No,No,Reuben Johnson,
Moulden Pre School,"103 Bonson Tce, Moulden, NT",", , , ",Top End,,,(08) 8930 5965,(08) 8932 3214,,No,Yes,No,No,No,,
Moulden Primary School,"103 Bonson Tce, Moulden, 0830, NT","PO Box 80, PALMERSTON, 0831, NT",Top End,not available,moulden.primary@education.nt.gov.au,(08) 8930 5900,(08) 8932 3214,Government,No,Yes,Yes,No,No,Sylvia Gregory,Urban
Mount Allan School,"N/A, Yuelamu, NT","PMB 67, Yuelamu via Alice Springs, 0872, NT",Central,n/a,dowreen.lata@education.nt.gov.au,(08) 8956 8860,(08) 8956 8846,Government,No,Yes,Yes,Yes,Yes,Dowreen Lata,Remote Category 3
Mulga Bore School,"n/a, Mulga Bore Community, NT","PMB 18, via Alice Springs, 0872, NT",Central,n/a,david.ward1@education.nt.gov.au,(08) 8956 9824,(08) 8956 9185,Government,No,Yes,Yes,Yes,Yes,David Ward,Remote Category 3
Murray Downs School,"Outstation, Murray Downs(Imangara), NT","PMB 48, Alice Springs, 0872, NT",Barkly,n/a,mitchell.valentine@education.nt.gov.au,(08) 8964 1951,(08) 8964 1993,Government,No,Yes,Yes,Yes,No,Mitchell Valentine,Remote Category 3
Murrupurtiyanuwu Catholic Primary School,"Kerinauia Highway, Wurrumiyanga NT 0822, NT","PO Box 45, Wurrumiyanga, Bathurst Island, via Winnellie, 0822, NT",Top End,http://www.mcpsbathurst.com.au,admin.mcs@nt.catholic.edu.au,(08) 8978 3986,(08) 8978 3922,Catholic,No,Yes,Yes,No,No,Kellie McGinlay,
Mutitjulu School,"Mutitjulu, Ayers Rock, NT","PO Box 121, Yulara, 0872, NT",Central,n/a,mutitjulu.school@education.nt.gov.au,(08) 8956 2547,(08) 8956 2176,Government,No,No,Yes,Yes,No,Trish Noy,Remote Category 1
Nakara Pre School,"35 Nakara Tce, Nakara, NT",", , , ",Darwin,,,(08) 8927 9823,(08) 8927 7994,,No,Yes,No,No,No,,
Nakara Primary School,"35 Nakara Tce, Nakara, 0810, NT","35 Nakara Tce, Nakara, 0810, NT",Darwin,https://www.nakaraprimary.nt.edu.au,nakara.primary@education.nt.gov.au,(08) 8927 9823,(08) 8927 7994,Government,No,Yes,Yes,No,No,Liza Parr,Urban
Nathalie Gorey Pre School,"80 Spearwood Rd, Alice Springs, NT",", , , ",Central,,,(08) 8952 1186,(08) 8953 2912,,No,Yes,No,No,No,,
Nawarddeken Academy Mamadawerre School,"Building 6, Mamadawerre & Manmoyi Community, tba, NT","tba, PO Box 37620 Winnellie  NT, 0821, NT",Top End,https://www.nawarddeken.org.au/,admin@nawarddeken.org.au,0427 816 431,,Independent,No,Yes,Yes,No,No,Olga Scholes,Remote Category 3
Nawarddeken Academy Manmoyi School,"Building 6, Mamadawerre & Manmoyi Community, tba, NT","tba, PO Box 37620 Winnellie  NT, 0821, NT",Top End,https://www.nawarddeken.org.au/,admin@nawarddeken.org.au,0427 816 431,,Independent,No,Yes,Yes,No,No,Olga Scholes,Remote Category 3
Nawardekken Academy Kabulwarnamyo School,"Building 2, Kabulwarnamyo, tba, NT","tba, PO Box 37620 Winnellie  NT, 0821, NT",Top End,https://www.nawarddeken.org.au/,admin@nawarddeken.org.au,0427 816 431,,Independent,No,Yes,Yes,Yes,No,Olga Scholes,Remote Category 3
Nemarluk School,"30 Styles St, Alawa, 0810, NT","PO Box 39729, WINNELLIE, 0821, NT",Darwin,http://nemarlukschool.com.au,admin.nemarluk@education.nt.gov.au,(08) 898 50400,,Government,No,Yes,Yes,No,No,Virg Hughes,Urban
Neutral Junction School,"Stuart Hwy, Neutral Junction, NT","Neutral Junction, via Alice Springs, 0872, NT",Barkly,n/a,leanne.forbes@education.nt.gov.au,(08) 8956 9754,(08) 8956 9625,Government,No,No,Yes,Yes,No,Leanne Forbes,Remote Category 2
Newcastle Waters School,"11 Drovers Dr, Newcastle Waters, NT","Newcastle Waters Station, via Elliott, 0862, NT",Barkly,n/a,dave.oke@education.nt.gov.au,(08) 8964 4566,(08) 8964 4637,Government,No,Yes,Yes,Yes,No,Dave Oke,Remote Category 1
Nganambala School,"n/a, Emu Point, NT","PMB 218, Via Winnellie, 0822, NT",Top End,n/a,samuel.sailor@education.nt.gov.au,(08) 8978 2001,(08) 8978 2008,Government,No,Yes,Yes,Yes,No,Samuel Sailor,Remote Category 3
Nganmarriyanga School,"N/A, Palumpa, NT","PMB 85, via WINNELLIE, 0822, NT",Top End,http://www.nganmarriyangaschool.com,dannielle.cairns@education.nt.gov.au,(08) 8978 2380,(08) 8978 2575,Government,Yes,Yes,Yes,Yes,Yes,Dannielle Cairns,Remote Category 3
Ngukurr Pre School,"Bawuda St, Ngukurr, NT",", , , ",Big Rivers,,,(08) 8975 4680,(08) 8975 4681,,No,Yes,No,No,No,,
Ngukurr School,"Bawuda St, Ngukurr, 0852, NT","PMB 138, KATHERINE, 0851, NT",Big Rivers,n/a,ngukurr.cec@education.nt.gov.au,(08) 8975 4680,(08) 8975 4681,Government,Yes,Yes,Yes,Yes,Yes,David Panjer,Remote Category 3
Nhulunbuy Christian College,"26 Eugenia Avenue, Nhulunbuy, NT","PO Box 621, Nhulunbuy, 0881, NT",East Arnhem,http://www.ncc.nt.edu.au/,admin.ncc@ntschools.net,(08) 8965 2900,(08) 8987 2357,Christian,No,No,Yes,Yes,No,Mark Twine,
Nhulunbuy High School,"51 Matthew Flinders Way, Nhulunbuy, 0880, NT","PO Box 1096, NHULUNBUY, 0881, NT",East Arnhem,n/a,nhulunbuy.high@education.nt.gov.au,(08) 898 70844,(08) 8987 1944,Government,No,No,No,Yes,Yes,Brad Madden,Remote Category 1
Nhulunbuy Pre School,"36 Chesterfield Cct, Nhulunbuy, NT",", , , ",East Arnhem,,,(08) 8987 1056,(08) 8987 1056,,No,Yes,No,No,No,,
Nhulunbuy Primary School,"60 Chesterfield Cct, Nhulunbuy, 0880, NT","PO Box 321, NHULUNBUY, 0881, NT",East Arnhem,http://www.nhulunbuyprimary.nt.edu.au/,nps.frontoffice@education.nt.gov.au,(08) 898 70022,,Government,Yes,Yes,Yes,No,No,Rachel Blundell,Remote Category 1
Nightcliff Middle School,"90 Aralia St, Rapid Creek, 0810, NT","90 Aralia St, NIGHTCLIFF, 0810, NT",Darwin,http://www.nightcliffmiddle.nt.edu.au,admin.nightms@education.nt.gov.au,(08) 898 37677,,Government,No,No,No,Yes,No,Eva Kokkinomagoulos,Urban
Nightcliff Pre School,"17 Pandanus St, Nightcliff, NT",", , , ",Darwin,,,(08) 8948 8488,(08) 8948 8499,,No,Yes,No,No,No,,
Nightcliff Primary School,"17 Pandanus St, Nightcliff, 0810, NT","PO BOX 798, NIGHTCLIFF, 0810, NT",Darwin,http://www.nightcliffprimary.nt.edu.au,nightcliff.ps@education.nt.gov.au,(08) 8948 8488,(08) 8948 8499,Government,No,No,Yes,No,No,Ranae Graham,Urban
NT Christian College,", Marrara, NT","PO Box 84, Karama, 0812, Unit 1 Strath Village, 43 Berrimah Road NT",Darwin,https://www.ntcc.nt.edu.au/,admin.ntcc@ntschools.net,(08) 8920 2000,,Christian,No,No,No,No,Yes,Luke Willsmore,
NT Music School,"60 Matthews Rd, Wulagi 0812, NT","PO Box 455, Sanderson, 0813, NT",Darwin,http://www.ntms.net.au,nt.musicschool@education.nt.gov.au,(08) 896 35550,(08) 8963 5569,Government,No,No,Yes,Yes,Yes,Bill Grose,Urban
NT School of Distance Education,"The Bullocky Point Education Precinct, Atkins Dr, The Gardens, 0820, NT","PO Box 40471, Casuarina, 0811, NT",Darwin,http://www.ntsde.nt.edu.au,ntsde.admin@education.nt.gov.au,(08) 892 22222,(08) 892 22258,Government,No,No,No,No,Yes,Anne White,Urban
Ntaria School,"N/A, Hermannsburg (Ntaria), NT","PMB 4, via Alice Springs, 0872, NT",Central,n/a,kim.omar@education.nt.gov.au,(08) 8956 7424,(08) 8956 7409,Government,Yes,Yes,Yes,Yes,Yes,Kim Omar,Remote Category 2
Numbulwar Pre School,"N/A, Numbulwar, NT",", , , ",Big Rivers,,,(08) 8975 4650,(08) 8975 4651,,No,Yes,No,No,No,,
Numbulwar School,"N/A, Numbulwar, NT","PMB 68, WINELLIE, 0822, NT",Big Rivers,n/a,numbulwar.school@education.nt.gov.au,(08) 8975 4650,,Government,Yes,Yes,Yes,Yes,Yes,Merryn Curley,Remote Category 3
Nyangatjatjara College,"n/a, Kaltukatjara, NT","PO Box 171, Yulara, 0872, NT",Central,https://nyangatjatjara.nt.edu.au/,ncollege@octa4.net.au,(08) 8956 2257,(08) 8956 2466,Independent,No,No,Yes,Yes,Yes,Mike Tucker,
Nyangatjatjara College - Docker Rvr Campus,"4 Tjala Place, Kaltukatjara (Docker River), NT","PO Box 171, Yulara, 0872, NT",Central,https://nyangatjatjara.nt.edu.au/,ceo@nyangatjatjaracollege.org.au,(08) 8956 7098,(08) 8956 7036,Independent,No,No,No,Yes,No,Mike Tucker,
Nyangatjatjara College - Imanpa Campus,"8 Mumu Rd (7-10), Imanpa, NT","PO Box 171, Yulara, 0872, NT",Central,https://nyangatjatjara.nt.edu.au/,ceo@nyangatjatjaracollege.org.au,(08) 8956 7038,(08) 8956 7038,Independent,No,No,No,Yes,No,Mike Tucker,
Nyangatjatjara College - Mutitjulu Campus,"1680 Uluru Rd, Yulara, NT","PO Box 171, Yulara, 0872, NT",Central,https://nyangatjatjara.nt.edu.au/,ceo@nyangatjatjaracollege.or.au,(08) 8956 2555,(08) 8956 2155,Independent,No,No,No,Yes,No,Mike Tucker,
Nyirripi School,"N/A, Nyirripi, NT","PMB 125, via Alice Springs, 0872, NT",Central,n/a,clarice.oleary@education.nt.gov.au,(08) 8956 8880,n/a,Government,No,No,Yes,No,No,Clarice OLeary,Remote Category 3
O'Loughlin Catholic College,"70 Mueller Rd, Karama, NT","P O Box 41911, Casuarina, 0811, NT",Darwin,http://www.oloughlin.nt.edu.au,secretary.oloughlin@nt.catholic.edu.au,(08) 8945 1277,(08) 8927 7140,Catholic,No,No,No,Yes,Yes,Megan Evans,
Our Lady of the Sacred Heart Catholic College - Alice Springs,"Sadadeen Rd, Alice Springs, NT","PO Box 2508, Alice Springs, 0871, NT",Central,http://www.olshalice.catholic.edu.au/,admin.olshalice@nt.catholic.edu.au,(08) 8950 6400,,Catholic,No,No,No,Yes,Yes,Paul Melloy,
Our Lady of the Sacred Heart Catholic College - Bath Street Campus,"5 Bath St, Alice Springs, NT","PO Box 2508, Alice Springs, 0871, NT",Central,http://www.olshalice.nt.edu.au/,admin.olshalice@nt.catholic.edu.au,(08) 8950 6400,,Catholic,No,No,Yes,Yes,No,Paul Melloy,
Our Lady of the Sacred Heart Catholic College - Traeger Campus,"8 Traeger Ave, Alice Springs, NT","PO Box 2508, Alice Springs, 0871, NT",Central,http://www.olshalice.catholic.edu.au/,admin.olshalice@nt.catholic.edu.au,(08) 8950 6400,,Catholic,No,No,Yes,Yes,No,Paul Melloy,
Our Lady of the Sacred Heart Thamarrurr Catholic College,"Wadeye, Port Keats, NT","Wadeye, Port Keats, via Winnellie, 0822, NT",Top End,www.olshnt.catholic.edu.au,admin.olshtcs@nt.catholic.edu.au,(08) 8978 2477,(08) 8978 2300,Catholic,Yes,Yes,Yes,Yes,Yes,Jacqueline Conboy,
Owen Springs Education Centre,"Stuart Highway, Alice Springs, 0870, NT","PO Box 4856, Alice Springs, 0871, NT",Central,n/a,joel.hohn@education.nt.gov.au,(08) 8958 5088 / (08) 8958 5089,n/a,Government,No,No,No,No,No,Joel Hohn,Urban
Palmerston Christian College,"50 Waler Road, Marlow Lagoon, Marlow Lagoon, NT","PO Box 113, Palmerston, 0831, NT",Top End,https://www.pcc.nt.edu.au/,admin.pcc@ntschools.net,(08) 7922 5600,(08) 8932 3440,Christian,No,No,Yes,Yes,No,Luke Willsmore,
Palmerston College,"10 Tilston Ave, Driver, 0830, NT","PO Box 8, PALMERSTON, , NT",Top End,http://www.palmerstoncollege.nt.edu.au,Palmerston.college@education.nt.gov.au,(08) 899 77999,,Government,No,No,No,Yes,Yes,Maisie Floyd,Urban
Papunya School,"N/A, Papunya, 0872, NT","PMB 77, via Alice Springs, 0872, NT",Central,n/a,papunya.admin@education.nt.gov.au,(08) 8956 8515,,Government,Yes,Yes,Yes,Yes,Yes,Christine Munro,Remote Category 3
Parap Pre School,"61 Ross Smith Ave, Parap, NT",", , , ",Darwin,,,(08) 8981 5146,(08) 8941 9269,,No,Yes,No,No,No,,
Parap Primary School,"52 Urquhart Street, Parap, 0820, NT","PO Box 69, PARAP, 0804, NT",Darwin,https://www.parapprimary.com.au,parapps.office@education.nt.gov.au,(08) 898 22922,(08) 8941 2606,Government,No,Yes,Yes,No,No,Bianca Hyke,Urban
Peppimenarti School,"N/A, Peppimenarti, NT","PMB 49, via Winnellie, 0822, NT",Top End,n/a,eric.barrows@education.nt.gov.au,(08) 8978 2455,(08) 8978 2578,Government,Yes,Yes,Yes,Yes,No,Eric Barrows,Remote Category 3
Pigeon Hole School,"N/A, Pigeon Hole, NT","PMB 10, via Katherine, 0852, NT",Big Rivers,n/a,anne.pollock@education.nt.gov.au,(08) 8975 0812,(08) 8975 0745,Government,No,Yes,Yes,No,No,Anne Pollock,Remote Category 3
Pine Creek School,"N/A, Pine Creek, 0847, NT","PO Box 196, Pine Creek, 0847, NT",Big Rivers,,jo.moon@education.nt.gov.au,(08) 8976 1228,(08) 8976 1246,Government,No,Yes,Yes,No,No,Jo Moon,Remote Special Category
Pularumpi School,"Pularumpi, Pirlangimpi, NT","PMB 51, via Winnellie, 0822, NT",Top End,n/a,kane.griffin@education.nt.gov.au,(08) 8978 3961,(08) 8978 3723,Government,Yes,Yes,Yes,Yes,No,Kane Griffin,Remote Category 2
Ramingining Pre School,"N/A, Ramingining, NT",", , , ",East Arnhem,,,(08) 8979 7924,(08) 8979 7916,,No,Yes,No,No,No,,
Ramingining School,"133Lewangu Drive, Ramingining, 0822, NT","PMB 125, via WINNELLIE, 0822, NT",East Arnhem,n/a,deanne.kathagen@education.nt.gov.au,(08) 8979 7924,n/a,Government,Yes,Yes,Yes,Yes,Yes,Deanne Kathagen,Remote Category 3
Robinson River School,"N/A, Robinson River, NT","PMB 145, Katherine, 0851, NT",Big Rivers,,theo.debeer@education.nt.gov.au,(08) 8975 9956,(08) 8975 9838,Government,Yes,Yes,Yes,Yes,Yes,Theo de Beer,Remote Category 3
Rockhampton Downs School,"Community ID 259, Wogyala, NT","PMB 34, Tennant Creek, 0862, NT",Barkly,n/a,aftab.shepherd@education.nt.gov.au,(08) 8964 4675,(08) 8964 4678,Government,No,No,Yes,Yes,No,Aftab Shepherd,Remote Category 3
Rona Glynn Pre School,"2 Mckay St, Alice Springs, NT",", , , ",Central,,,(08) 895 21792,(08) 8952 6524,,No,Yes,No,No,No,,
Rosebery Primary School,"Belyuen Road Rosebery, Rosebery, 0832, NT","PO Box 650, PALMERSTON, 0832, NT",Top End,http://roseberyprimary.nt.edu.au/,roseberyps.admin@education.nt.gov.au,(08) 792 30100,(08) 8930 5199,Government,No,Yes,Yes,No,No,Danielle Banicek,Urban
Ross Park Primary School,"7 Winnecke Ave, Alice Springs, 0870, NT","PO Box 364, ALICE SPRINGS, 0871, NT",Central,http://www.rossparkprimary.nt.edu.au,rosspark.school@ntschools.net,(08) 895 52000,(08) 8952 6524,Government,No,Yes,Yes,No,No,Penny Weily,Urban
Royal Darwin Hospital School,"Rocklands Drive, Tiwi, Tiwi, 0810, NT","C/o Nakara Primary School, Goodman St, NAKARA, 0810, NT",Darwin,n/a,tania.nicholls@education.nt.gov.au,(08) 8922 8736,(08) 89228252,Government,No,No,No,No,No,Tania Nicholls,Urban
Sacred Heart Catholic Primary School,"34 Emery Ave, Woodroffe, NT","PO Box 271, Palmerston, 0831, NT",Top End,http://www.shpsnt.catholic.edu.au/,admin.shps@nt.catholic.edu.au,(08) 8924 8700,(08) 8932 2388,Catholic,No,No,Yes,No,No,Stephen Versteegh,
Sadadeen Primary School,"80 Spearwood Rd, Alice Springs, 0870, NT","PO Box 2707, ALICE SPRINGS, 0871, NT",Central,https://www.sadadeenprimary.nt.edu.au/,sadadeen.primary@education.nt.gov.au,(08) 895 52299,,Government,Yes,Yes,Yes,No,No,Anthea Frossinakis,Urban
Sanderson Middle School,"60 Matthews Rd, Malak, 0812, NT","PO Box 189, KARAMA, 0813, NT",Darwin,https://www.sandersonmiddle.nt.edu.au/,sanderson.middle@education.nt.gov.au,(08) 7923 0500,,Government,No,No,No,Yes,No,Robert McIntosh,Urban
Sattler Christian College,"15 Sattler Cres, Bees Creek, NT","PO Box 1138,, Coolalinga, 0839, NT",Top End,https://scc.nt.edu.au,admin.scc@ntschools.net,7922 1500,(08) 8983 1297,Christian,No,No,Yes,Yes,No,Michael Tooler,
School of Sport Education NT,"1 Nemarluk Drive, Ludmilla, NT, 0820, NT","PO Box 42896, Casuarina, 0811, NT",Darwin,https://sporteducation.nt.edu.au,admin.ssnt@education.nt.gov.au,(08) 899 95700,,Government,No,No,Yes,Yes,Yes,Tim East,Urban
SEDA College NT,"5/90 Ross Smith Ave, Fannie Bay, 0820, NT","5/90 Ross Smith Ave, Fannie Bay, 0820, NT",Darwin,https://seda.nt.edu.au/,info@sedacollege.nt.edu.au,1300 337 332,n/a,Independent,No,No,No,No,Yes,Francis Gill,
Shepherdson College,"Wakirana St, Galiwinku, 0822, NT","PMB 74, via WINELLIE, 0822, NT",East Arnhem,n/a,principal.shepherdson@education.nt.gov.au,(08) 8987 9044,(08) 8987 9060,Government,Yes,Yes,Yes,Yes,Yes,Joe Hewett,Remote Category 3
Shepherdson Pre School,"Wakirana St, Galiwinku, NT",", , , ",East Arnhem,,,(08) 8987 9044,(08) 8987 9060,,No,Yes,No,No,No,,
St Francis of Assisi Catholic Primary School,"56 Challoner Cct, Humpty Doo, NT","PO Box 921, Humpty Doo, , NT",Top End,n/a,admin.sfas@nt.catholic.edu.au,(08) 8988 1212,(08) 8988 1514,Catholic,No,No,Yes,No,No,Jennifer Rudyard,
St Francis Xavier Catholic School,"7333 Daly River Rd, Nauiyu, NT","CMB 28, Daly River, 0822, NT",Top End,www.sfxnt.catholic.edu.au,admin.dalyriver@nt.catholic.edu.au,(08) 8978 2427,(08) 8978 2590,Catholic,No,Yes,Yes,Yes,No,Peter Baldry,
St John's Catholic College,"54 Salonika St, The Gardens, NT","Mail Bag 13, Darwin, 0820, NT",Darwin,http://www.stjohnsnt.catholic.edu.au/,admin.stjohns@nt.catholic.edu.au,(08) 8982 2222,(08) 8982 2204,Catholic,No,No,No,Yes,Yes,Cameron Hughes,
St Joseph's Catholic College,"Cnr Maluka Road & Chambers Drive, Katherine 0850, NT","PO Box 535, Katherine, 0850, NT",Big Rivers,https://www.stjoeys.college,admin.stjosephs@nt.catholic.edu.au,(08) 89723555,(08) 89723701,Catholic,No,No,Yes,Yes,Yes,Sunniva Antonucci,
St Joseph's Catholic Flexible Learning Centre,"5 Bloomfield Street, Alice Springs, 0870, NT","P O Box 2991, Alice Springs, 0871, NT",Central,https://www.ereafsn.edu.au/st-josephs-catholic-flc-alice-springs/,sjcflc@ereafsn.edu.au,89293900,,Catholic,No,No,No,Yes,No,Leon Robinson,
St Mary's Catholic Primary School,"3 Lindsay St, Darwin City, NT","PO Box 2413, Darwin, 0801, NT",Darwin,http://www.stmarysnt.catholic.edu.au/,admin.stmarys@nt.catholic.edu.au,(08) 8981 9796,(08) 8981 5286,Catholic,No,No,Yes,No,No,Lisa Boyd,
St Paul's Catholic Primary School,"Cnr Trower Road and Francis Street, Nightcliff, NT","PO Box 40344, Casuarina, 0811, NT",Darwin,http://www.stpaulsnt.catholic.edu.au/,admin.stpauls@nt.catholic.edu.au,(08) 8985 1911,(08) 8948 0227,Catholic,No,No,Yes,No,No,Jo Knight,
St Philip's College,"2 Ulpaya Rd, Alice Springs, NT","PO Box 33, Alice Springs, 0871, NT",Central,http://www.stphilips.nt.edu.au/,info@stphilips.nt.edu.au,(08) 8950 4511,(08) 8952 2822,Independent,No,No,No,Yes,Yes,Leslie Tilbrook,
Stirling School,"N/A, Wilora (Stirling Station) 0872, NT","c/- Ti Tree Post Office, Ti Tree, 0872, NT",Central,n/a,tony.tree@education.nt.gov.au,(08) 8956 9759,(08) 8956 9759,Government,No,Yes,Yes,Yes,No,Antony Tree,Remote Category 2
Stuart Park Pre School,"8 Nudl St, Stuart Park, NT",", , , ",Darwin,,,(08) 899 77322,,,No,Yes,No,No,No,,
Stuart Park Primary School,"8 Nudl St, Stuart Park, 0820, NT","PO Box 37421, Winnellie, 0831, NT",Darwin,http://www.stuartparkprimary.nt.edu.au,stuartpark.school@education.nt.gov.au,(08) 899 77333,,Government,No,Yes,Yes,No,No,Leisha Crompton,Urban
Taminmin College,"70 Challoner Cct, Humpty Doo, NT","PO Box 21, HUMPTY DOO, 0836, NT",Top End,http://www.taminmin.nt.edu.au/,admin.taminmin@education.nt.gov.au,(08) 898 37000,(08) 8988 2351,Government,No,No,No,Yes,Yes,John Harris,Urban
Tennant Creek High School,"38 Stuart St, Tennant Creek, NT","PO Box 546, Tennant Creek, 0861, NT",Barkly,n/a,admin.tchs@education.nt.gov.au,(08) 8962 2102,(08) 8962 3334,Government,No,No,No,Yes,Yes,Petrina Hayward,Remote Category 1
Tennant Creek Pre School,"31 Paterson St, Tennant Creek, NT",", , , ",Barkly,,,(08) 8962 2110,(08) 8962 4424,,No,Yes,No,No,No,,
Tennant Creek Primary School,"31 Paterson St, Tennant Creek, 0860, NT","PO Box 506, Tennant Creek, 0861, NT",Barkly,n/a,admin.tennasch@education.nt.gov.au,(08) 896 32424,(08) 8963 2422,Government,Yes,Yes,Yes,No,No,Katrina Georgiou,Remote Category 1
The Essington School,"22 Chapman Rd, Rapid Creek, NT","PO Box 42321, Casuarina, 0811, NT",Darwin,http://www.essington.nt.edu.au,administration@essington.nt.edu.au,(08) 8985 0100,(08) 8948 1910,Independent,No,Yes,Yes,Yes,Yes,Paul Nyhuis,
Ti Tree School,"26 Palmer St, Ti-Tree, NT","Locked Bag 257,, Ti Tree, via Alice Springs, 0872, NT",Central,n/a,mark.webster@education.nt.gov.au,(08) 8956 9743,(08) 8956 9999,Government,No,Yes,Yes,Yes,No,Mark Webster,Remote Category 1
Timber Creek School,"62 Wilson St, Timber Creek, NT","PMB 115, via Katherine, 0851, NT",Big Rivers,n/a,timbercreek.admin@education.nt.gov.au,(08) 8975 0714,(08) 8975 0683,Government,No,Yes,Yes,Yes,No,Rita Ellen,Remote Category 2
Tipperary Station School,"Daly River Road, Tipperary, NT","PMB 214, via Winnellie, 0822, NT",Top End,n/a,carla.clough@education.nt.gov.au,(08) 8978 2765,(08) 8978 2786,Government,No,No,Yes,Yes,No,Carla Clough,Remote Category 2
Titjikala School,"N/A, Titjikala (Maryvale), NT","PMB 130, via Alice Springs, 0872, NT",Central,n/a,nanci.morrison@education.nt.gov.au,(08) 8956 0927,(08) 8956  0914,Government,No,Yes,Yes,No,No,Nanci Morrison,Remote Category 2
Tivendale School,"Tivendale Road, Berrimah, 0828, NT","PO Box 703, Karama, 0812, NT",Darwin,n/a,matt.watson@education.nt.gov.au,(08) 899 95910,tba,Government,No,No,No,No,No,,Urban
Tiwi College,"Pickertaramoor Melville Island, , NT","LMB 127, Winnellie, 0822, NT",Top End,http://www.tiwicollege.com/,admin.tiwicollege@ntschools.net,08 89709024,08 89709025,Independent,No,No,No,No,No,Greg Hollis,
Top End School of Flexible Learning,"1 Malak Place, Malak, 0812, NT","PO Box 703, Karama, 0812, NT",Darwin,n/a,malakrc.det@education.nt.gov.au,(08) 899 77199,8927 4292,Government,No,No,No,No,No,Jane Arnott,Urban
Urapunga School,"Blyth St, Rittarangu (Urapunga), NT","PMB 12, via Katherine, 0852, NT",Big Rivers,n/a,craig.watkins@education.nt.gov.au,(08) 8975 4645,(08) 8975 4998,Government,Yes,Yes,Yes,Yes,Yes,Craig Watkins,Remote Category 3
Wagaman Pre School,"35 Wagaman Tce, Wagaman, NT",", , , ",Darwin,,,(08) 8922 6011,(08) 8922 6000,,No,Yes,No,No,No,,
Wagaman Primary School,"35 Wagaman Tce, Wagaman, 0810, NT","PO Box 40019, CASUARINA, 0811, NT",Darwin,http://www.wagamanprimary.nt.edu.au,wagaman.school@education.nt.gov.au,(08) 8922 6011,(08) 8922 6000,Government,No,Yes,Yes,No,No,Mandy McKinnon,Urban
Wallace Rockhole School,"N/A, Wallace Rockhole, NT","PO Box 2256, Alice Springs, 0871, NT",Central,n/a,wallace.rockhole@education.nt.gov.au,(08) 8956 7330,(08) 8956 7330,Government,No,Yes,Yes,No,No,Steve Nankivell,Remote Category 2
Walungurru School,"N/A, Walungurru (Kintore), NT","PMB 14, via Alice Springs, 0872, NT",Central,n/a,walungurru.school@education.nt.gov.au,(08)  8964 6056,(08) 8956 8580,Government,Yes,Yes,Yes,No,No,Nick Richardson,Remote Category 3
Wanguri Pre School,"46 Gsell St, Wanguri, NT",", , , ",Darwin,,,(08) 8927 1655,(08) 8945 2193,,No,Yes,No,No,No,,
Wanguri Primary School,"46 Gsell St, Wanguri, 0810, NT","PO Box 40519, CASUARINA, 0811, NT",Darwin,http://wanguriprimary.nt.edu.au,wanguri.prim@education.nt.gov.au,(08) 8927 1655,(08) 8945 2193,Government,No,Yes,Yes,No,No,David Cluse,Urban
Warruwi School,"N/A, Warruwi (Goulburn Island), 0822, NT","PMB 90, via WINNELLIE, 0821, NT",Top End,n/a,ken.millar@education.nt.gov.au,(08) 8979 0222,(08) 8979 0215,Government,Yes,Yes,Yes,Yes,Yes,Ken Millar,Remote Category 3
Watarrka School,"n/a, Lilla Community, NT","Education Stores, Shed 9, 66A Smith St, Alice Springs, 0870, NT",Central,n/a,tba,(08) 8956 7758,(08) 8956 7081,Government,No,No,Yes,Yes,No,tba tba,Remote Category 3
Watiyawanu School,"N/A, Mt Liebig, NT","PMB 111, via Alice Springs, 0872, NT",Central,n/a,l.kenny@education.nt.gov.au,(08) 8956 8555,(08) 8956 8555,Government,No,Yes,Yes,Yes,No,Larry Kenny,Remote Category 3
Willowra School,"N/A, Willowra, NT","PMB 102, via Alice Springs, 0872, NT",Central,n/a,willowra.school@education.nt.gov.au,(08) 8956 8408,(08) 8956 8408,Government,No,No,Yes,Yes,No,Barb Wilson,Remote Category 3
Woodroffe Pre School,"55 Woodroffe Ave, Woodroffe, NT",", , , ",Top End,,,(08) 8983 7611,,,No,Yes,No,No,No,,
Woodroffe Primary School,"55 Woodroffe Ave, Woodroffe, 0830, NT","PO Box 2021, PALMERSTON, 0831, NT",Top End,"https://woodroffeps.nt.edu.au/ ",woodroffe.ps@education.nt.gov.au,(08) 898 37600,,Government,No,Yes,Yes,No,No,Kristy West,Urban
Woolaning School,"Litchfield Park Rd, Litchfield Park, NT","PO Box 3261, Palmerston, 0831, NT",Top End,n/a,admin.woolasch@education.nt.gov.au,(08) 8978 2334,(08) 8978 2600,Government,No,No,Yes,No,No,Vanessa Lowe,Remote Category 2
Woolianna School,"Wooliana Rd, Daly River, NT","PMB 194, Winnellie, 0821, NT",Top End,http://www.wooliannaschool.nt.edu.au/,woolianna.school@education.nt.gov.au,(08) 8978 2984,(08) 8978 2629,Government,No,Yes,Yes,Yes,No,Jarrod Vague,Remote Category 2
Wugularr School,"Laiwanga St, Wugularr, NT","PMB 6, Katherine, 0851, NT",Big Rivers,n/a,admin.wugulsch@education.nt.gov.au,(08) 8975 4529,(08) 8975 4872,Government,Yes,Yes,Yes,Yes,Yes,Stephen Hill,Remote Category 2
Wulagi Pre School,"24 Brolga St, Wulagi, NT",", , , ",Darwin,,,(08) 898 37818,,,No,Yes,No,No,No,,
Wulagi Primary School,"24 Brolga St, Wulagi, 0812, NT","24 Brolga St, WULAGI, 0812, NT",Darwin,http://www.wulagiprimary.nt.edu.au/,wulagi.primary@education.nt.gov.au,(08) 898 37800,,Government,No,Yes,Yes,No,No,Ramon Dixon,Urban
Wurankuwu Homeland Learning Centre,"Community ID 868, Wurankuwu, NT","Nguiu, Bathurst Island, 0822, NT",Top End,not available,tba,(08) 8978 3986,(08) 8978 3922,Catholic,No,Yes,Yes,No,No,,
Xavier Catholic College,"Wurrumiyanga, Bathurst Island, NT","PMB 139,, via Winnellie, 0822, NT",Top End,http://www.xcecnt.catholic.edu.au/,admin.xcec@nt.catholic.edu.au,(08) 8978 3970,(08) 8978 3914,Catholic,No,No,No,Yes,Yes,Rhett Bowden,
Yarralin School,"N/A, Yarralin, NT","PMB 34, via Katherine, 0851, NT",Big Rivers,n/a,zoe.richardson@education.nt.gov.au,(08) 8975 0809,(08) 8975 0899,Government,No,Yes,Yes,Yes,No,Zoe Richardson,Remote Category 3
Yipirinya School,"Lovegrove Drive, Alice Springs, NT","C/- Yipirinya School Council Inc, PO Box 2363, Alice Springs, 0871, NT",Central,http://www.yipirinya.com.au/,reception.yipirinya.ntschools.net,(08) 8952 5633,(08) 8952 3541,Independent,No,Yes,Yes,Yes,Yes,Gavin Morris,
Yirara College,"470 South Stuart Highway, Alice Springs, NT","PMB 51, Alice Springs, 0871, NT",Central,http://www.yirara.nt.edu.au/,info@yirara.nt.edu.au,(08) 8950 5644,(08) 8950 5666,Independent,No,No,No,Yes,Yes,Wesley Meurant,
Yirrkala Pre School,"Rankine Road, Yirrkala, NT",", , , ",East Arnhem,,,(08) 898 71988,(08) 89871725,,No,No,No,No,No,,
Yirrkala School,"Rankine Road, Yirrkala, NT","PO Box 896, Nhulunbuy, 0881, NT",East Arnhem,n/a,admin.yirrkala@ntschools.net,(08) 898 71988,(08) 8987 1725,Government,Yes,Yes,Yes,Yes,Yes,Katrina Hudson,Remote Category 1
Yuendumu Pre School,"Conniston Road, Yuendumu, NT",", , , ",Central,,,(08) 8956 4011,(08) 89 564001,,No,No,No,No,No,,
Yuendumu School,"Conniston Rd, Yuendumu, NT","C/ - Post Office, Yuendumu, 0870, NT",Central,http://www.yuendumuschool.nt.edu.au,admin.yuendumu@education.nt.gov.au,(08) 8956 4011,(08) 8956 4001,Government,Yes,Yes,Yes,Yes,Yes,Marisa Boscato,Remote Category 3
Yulara School,"21 Winmati St, Yulara, 0872, NT","PO Box 146, Yulara, 0872, NT",Central,https://yularaschool.nt.edu.au/,yulara.school@education.nt.gov.au,(08) 8956 2014,08 8956 2535,Government,No,Yes,Yes,Yes,Yes,Megan Stockley-Smith,Remote Category 1
Zuccoli Primary School,"130 Zuccoli Parade, Zuccoli, 0830, NT","PO Box 2222, PALMERSTON, 0832, NT",Top End,tba,ZuccoliPrimary@education.nt.gov.au,(08) 792 30222,,Government,No,No,Yes,No,No,Elizabeth Andrade,Urban
